ONEWEB-0156             
1 48052U 21025L   23239.83434210 -.00000085  00000+0 -26646-3 0  9994
2 48052  87.9015 164.0201 0001989  78.5242 281.6111 13.13470478119111
ONEWEB-0161             
1 48053U 21025M   23240.34007892 -.00000006  00000+0 -52023-4 0  9997
2 48053  87.9084 163.8906 0002122  73.7877 286.3485 13.13469597119114
ONEWEB-0158             
1 48054U 21025N   23240.30410581 -.00001869  00000+0 -51533-2 0  9998
2 48054  87.9010 163.9345 0001771  83.0799 277.0531 13.13477674119224
ONEWEB-0157             
1 48055U 21025P   23239.79413967  .00000303  00000+0  79519-3 0  9996
2 48055  87.9094 164.0000 0002070  70.2643 289.8709 13.13470938119107
ONEWEB-0162             
1 48056U 21025Q   23239.83220782 -.00000043  00000+0 -15148-3 0  9994
2 48056  87.9090 163.9917 0001994  74.9792 285.1558 13.13467207119059
ONEWEB-0155             
1 48057U 21025R   23240.08192066  .00000289  00000+0  75743-3 0  9994
2 48057  87.9091 163.9479 0002037  76.2264 283.9092 13.13468381119257
ONEWEB-0149             
1 48058U 21025S   23239.87455888  .00000231  00000+0  59798-3 0  9993
2 48058  87.9089 163.9876 0001711  69.0868 291.0444 13.13465525119038
ONEWEB-0148             
1 48059U 21025T   23239.83857401  .00000044  00000+0  84382-4 0  9997
2 48059  87.9085 164.0038 0001821  52.3865 307.7429 13.13468956119142
